OBJECT_NAME,OBJECT_ID,EPOCH,MEAN_MOTION,ECCENTRICITY,INCLINATION,RA_OF_ASC_NODE,ARG_OF_PERICENTER,MEAN_ANOMALY,EPHEMERIS_TYPE,CLASSIFICATION_TYPE,NORAD_CAT_ID,ELEMENT_SET_NO,REV_AT_EPOCH,BSTAR,MEAN_MOTION_DOT,MEAN_MOTION_DDOT
STARLINK-5826,2023-028AT,2026-06-19T18:41:15.820512,14.98326018,.00032003,69.9993,307.2332,267.7862,92.2931,0,U,55782,999,18231,-.13475347E-3,-.17E-4,0
STARLINK-5825,2023-028AU,2026-06-19T18:41:01.650048,14.98329106,.00031723,70.0000,307.2323,263.3812,96.6987,0,U,55783,999,18231,-.19517616E-4,-.326E-5,0
STARLINK-5797,2023-028AV,2026-06-19T18:17:13.231680,14.98329917,.00028151,70.0013,307.1735,269.2231,90.8605,0,U,55784,999,18231,-.29618523E-4,-.446E-5,0
STARLINK-5818,2023-028AW,2026-06-19T18:35:03.045120,14.98311744,.00024701,69.9996,307.2169,272.6945,87.3931,0,U,55785,999,18231,-.1518959E-3,-.1904E-4,0
STARLINK-5823,2023-028AX,2026-06-19T22:00:01.999584,14.98342491,.00031817,70.0008,306.7822,273.5996,201.7467,0,U,55786,999,576,-.13207226E-2,-.15821E-3,0
STARLINK-5811,2023-028AY,2026-06-19T18:29:00.172032,14.98332703,.00030474,69.9993,307.2020,268.0443,92.0367,0,U,55787,999,18231,.15658463E-4,.94E-6,0
STARLINK-5804,2023-028AZ,2026-06-19T19:59:09.338208,14.98325754,.00028065,69.9992,307.0190,268.4632,91.6205,0,U,55788,999,18232,.14576255E-3,.1646E-4,0
STARLINK-5815,2023-028BA,2026-06-19T17:46:55.685856,14.98332027,.00031627,69.9997,307.0985,268.7939,91.2857,0,U,55789,999,18231,.15726472E-4,.95E-6,0
STARLINK-5813,2023-028BB,2026-06-19T16:17:02.427648,14.98332458,.00031229,69.9999,307.2840,267.9670,92.1131,0,U,55790,999,18230,.35757967E-4,.334E-5,0
STARLINK-5807,2023-028BC,2026-06-19T18:10:58.494144,14.98333739,.00034911,69.9997,307.1583,262.4343,97.6420,0,U,55791,999,18231,-.96599705E-4,-.1246E-4,0
ONEWEB-0530,2023-029A,2026-06-19T17:47:38.990400,13.20771613,.00022769,87.9186,273.9598,90.6935,269.4459,0,U,55796,999,16148,-.21483331E-4,.4E-7,0
ONEWEB-0534,2023-029B,2026-06-19T17:30:40.168512,13.20771943,.00018729,87.9189,273.9626,101.1182,259.0162,0,U,55797,999,16148,-.28391071E-4,.1E-7,0
ONEWEB-0556,2023-029C,2026-06-19T17:40:21.313056,13.20774038,.00014977,87.9186,273.9607,77.0840,283.0460,0,U,55798,999,16148,-.48675185E-4,-.7E-7,0
ONEWEB-0562,2023-029D,2026-06-19T17:20:58.324128,13.20771183,.0002198,87.9186,273.9442,77.6407,282.4973,0,U,55799,999,16148,.20930387E-4,.21E-6,0
ONEWEB-0563,2023-029E,2026-06-19T13:35:31.580736,13.20772443,.00017744,87.9184,274.0059,104.0594,256.0736,0,U,55800,999,16145,.11668345E-3,.6E-6,0
ONEWEB-0564,2023-029F,2026-06-19T18:53:06.381024,13.20770958,.0002119,87.9187,273.9353,89.9113,270.2263,0,U,55801,999,16149,.14619189E-3,.72E-6,0
ONEWEB-0638,2023-029G,2026-06-19T18:03:55.872000,13.14504119,.00017109,87.8958,289.2402,84.3059,275.8266,0,U,55802,999,15973,-.23885677E-3,-.76E-6,0
ONEWEB-0639,2023-029H,2026-06-19T18:16:18.259680,13.19726171,.00014331,87.9172,304.4630,130.4616,229.6642,0,U,55803,999,15924,.12932141E-3,.65E-6,0
ONEWEB-0640,2023-029J,2026-06-19T18:17:37.144608,13.14503409,.0001317,87.8955,289.2291,88.1964,271.9317,0,U,55804,999,15975,.74213553E-4,.4E-6,0
ONEWEB-0641,2023-029K,2026-06-19T14:31:07.185792,13.19725109,.00018191,87.9181,304.4832,105.3464,254.7870,0,U,55805,999,15923,.18983806E-3,.89E-6,0
ONEWEB-0642,2023-029L,2026-06-19T18:02:39.671520,13.19724389,.00016967,87.9173,304.4659,127.1971,232.9317,0,U,55806,999,15924,-.46178666E-3,-.172E-5,0
ONEWEB-0643,2023-029M,2026-06-19T17:34:14.310048,13.14503141,.00020075,87.8959,289.2223,120.8779,239.2549,0,U,55807,999,15972,-.43095849E-3,-.147E-5,0
ONEWEB-0644,2023-029N,2026-06-19T19:45:00.295776,13.19724855,.00017893,87.9172,304.4530,110.5935,249.5390,0,U,55808,999,15925,-.32547272E-4,0,0
ONEWEB-0645,2023-029P,2026-06-19T18:27:40.239072,13.19724635,.00014417,87.9170,304.4607,103.9251,256.2042,0,U,55809,999,15924,.67758095E-4,.4E-6,0
ONEWEB-0646,2023-029Q,2026-06-19T18:52:42.215808,13.19724923,.00018399,87.9174,304.4573,108.4526,251.6807,0,U,55810,999,15923,.574421E-6,.13E-6,0
ONEWEB-0648,2023-029R,2026-06-19T18:38:09.682080,13.14501817,.00011865,87.8965,289.1873,125.5412,234.5829,0,U,55811,999,15973,.94766076E-3,.364E-5,0
ONEWEB-0649,2023-029S,2026-06-19T17:39:54.200736,13.19725434,.00016359,87.9173,304.4652,103.6141,256.5174,0,U,55812,999,15926,.3162038E-4,.26E-6,0
ONEWEB-0650,2023-029T,2026-06-19T19:22:16.208256,13.19706559,.00014664,87.9166,304.4545,126.2485,233.8784,0,U,55813,999,15924,-.5834428E-2,-.2322E-4,0
ONEWEB-0652,2023-029U,2026-06-19T18:10:44.663232,13.14501811,.00020919,87.8965,289.1982,98.5741,261.5626,0,U,55814,999,15970,-.50249827E-3,-.173E-5,0
ONEWEB-0653,2023-029V,2026-06-19T17:47:55.144608,13.14503588,.00018976,87.8967,289.1991,98.3770,261.7575,0,U,55815,999,15973,-.50897442E-3,-.176E-5,0
