STARLINK-5826           
1 55782U 23028AT  26170.77865533 -.00001700  00000+0 -13475-3 0  9994
2 55782  69.9993 307.2332 0003200 267.7862  92.2931 14.98326018182310
STARLINK-5825           
1 55783U 23028AU  26170.77849132 -.00000326  00000+0 -19518-4 0  9990
2 55783  70.0000 307.2323 0003172 263.3812  96.6987 14.98329106182318
STARLINK-5797           
1 55784U 23028AV  26170.76195870 -.00000446  00000+0 -29619-4 0  9999
2 55784  70.0013 307.1735 0002815 269.2231  90.8605 14.98329917182315
STARLINK-5818           
1 55785U 23028AW  26170.77434080 -.00001904  00000+0 -15190-3 0  9998
2 55785  69.9996 307.2169 0002470 272.6945  87.3931 14.98311744182314
STARLINK-5823           
1 55786U 23028AX  26170.91668981 -.00015821  00000+0 -13207-2 0  9993
2 55786  70.0008 306.7822 0003181 273.5996 201.7467 14.98342491  5760
STARLINK-5811           
1 55787U 23028AY  26170.77014088  .00000094  00000+0  15658-4 0  9999
2 55787  69.9993 307.2020 0003047 268.0443  92.0367 14.98332703182316
STARLINK-5804           
1 55788U 23028AZ  26170.83274697  .00001646  00000+0  14576-3 0  9992
2 55788  69.9992 307.0190 0002806 268.4632  91.6205 14.98325754182323
STARLINK-5815           
1 55789U 23028BA  26170.74092229  .00000095  00000+0  15726-4 0  9998
2 55789  69.9997 307.0985 0003162 268.7939  91.2857 14.98332027182319
STARLINK-5813           
1 55790U 23028BB  26170.67850032  .00000334  00000+0  35758-4 0  9999
2 55790  69.9999 307.2840 0003122 267.9670  92.1131 14.98332458182306
STARLINK-5807           
1 55791U 23028BC  26170.75762146 -.00001246  00000+0 -96600-4 0  9995
2 55791  69.9997 307.1583 0003491 262.4343  97.6420 14.98333739182319
ONEWEB-0530             
1 55796U 23029A   26170.74142350  .00000004  00000+0 -21483-4 0  9996
2 55796  87.9186 273.9598 0002276  90.6935 269.4459 13.20771613161485
ONEWEB-0534             
1 55797U 23029B   26170.72963158  .00000001  00000+0 -28391-4 0  9994
2 55797  87.9189 273.9626 0001872 101.1182 259.0162 13.20771943161486
ONEWEB-0556             
1 55798U 23029C   26170.73635779 -.00000007  00000+0 -48675-4 0  9995
2 55798  87.9186 273.9607 0001497  77.0840 283.0460 13.20774038161484
ONEWEB-0562             
1 55799U 23029D   26170.72289727  .00000021  00000+0  20930-4 0  9991
2 55799  87.9186 273.9442 0002198  77.6407 282.4973 13.20771183161486
ONEWEB-0563             
1 55800U 23029E   26170.56633774  .00000060  00000+0  11668-3 0  9991
2 55800  87.9184 274.0059 0001774 104.0594 256.0736 13.20772443161455
ONEWEB-0564             
1 55801U 23029F   26170.78687941  .00000072  00000+0  14619-3 0  9993
2 55801  87.9187 273.9353 0002119  89.9113 270.2263 13.20770958161492
ONEWEB-0638             
1 55802U 23029G   26170.75273000 -.00000076  00000+0 -23886-3 0  9990
2 55802  87.8958 289.2402 0001710  84.3059 275.8266 13.14504119159732
ONEWEB-0639             
1 55803U 23029H   26170.76132245  .00000065  00000+0  12932-3 0  9993
2 55803  87.9172 304.4630 0001433 130.4616 229.6642 13.19726171159249
ONEWEB-0640             
1 55804U 23029J   26170.76223547  .00000040  00000+0  74214-4 0  9995
2 55804  87.8955 289.2291 0001317  88.1964 271.9317 13.14503409159754
ONEWEB-0641             
1 55805U 23029K   26170.60494428  .00000089  00000+0  18984-3 0  9991
2 55805  87.9181 304.4832 0001819 105.3464 254.7870 13.19725109159236
ONEWEB-0642             
1 55806U 23029L   26170.75184805 -.00000172  00000+0 -46179-3 0  9995
2 55806  87.9173 304.4659 0001696 127.1971 232.9317 13.19724389159247
ONEWEB-0643             
1 55807U 23029M   26170.73211007 -.00000147  00000+0 -43096-3 0  9996
2 55807  87.8959 289.2223 0002007 120.8779 239.2549 13.14503141159725
ONEWEB-0644             
1 55808U 23029N   26170.82292009  .00000000  00000+0 -32547-4 0  9995
2 55808  87.9172 304.4530 0001789 110.5935 249.5390 13.19724855159259
ONEWEB-0645             
1 55809U 23029P   26170.76921573  .00000040  00000+0  67758-4 0  9999
2 55809  87.9170 304.4607 0001441 103.9251 256.2042 13.19724635159249
ONEWEB-0646             
1 55810U 23029Q   26170.78659972  .00000013  00000+0  57442-6 0  9995
2 55810  87.9174 304.4573 0001839 108.4526 251.6807 13.19724923159230
ONEWEB-0648             
1 55811U 23029R   26170.77650095  .00000364  00000+0  94766-3 0  9998
2 55811  87.8965 289.1873 0001186 125.5412 234.5829 13.14501817159738
ONEWEB-0649             
1 55812U 23029S   26170.73604399  .00000026  00000+0  31620-4 0  9997
2 55812  87.9173 304.4652 0001635 103.6141 256.5174 13.19725434159265
ONEWEB-0650             
1 55813U 23029T   26170.80713204 -.00002322  00000+0 -58344-2 0  9995
2 55813  87.9166 304.4545 0001466 126.2485 233.8784 13.19706559159243
ONEWEB-0652             
1 55814U 23029U   26170.75746138 -.00000173  00000+0 -50250-3 0  9993
2 55814  87.8965 289.1982 0002091  98.5741 261.5626 13.14501811159708
ONEWEB-0653             
1 55815U 23029V   26170.74161047 -.00000176  00000+0 -50897-3 0  9993
2 55815  87.8967 289.1991 0001897  98.3770 261.7575 13.14503588159735
